STARLINK-3705           
1 52103C 22029R   26122.72340278  .00022009  00000+0  13803-2 0  1229
2 52103  53.2155 196.5555 0001245  81.5221 103.9220 15.08824052    14
STARLINK-3706           
1 52105C 22029T   26122.75881944  .00000157  00000+0  98621-5 0  1228
2 52105  53.2153 196.3961 0000915  69.6586 343.0545 15.08835048    11
STARLINK-3670           
1 52106C 22029U   26122.69493056  .00049028  00000+0  30747-2 0  1227
2 52106  53.2153 206.6818 0001026  65.3437 250.3269 15.08811011    17
STARLINK-3658           
1 52107C 22029V   26122.72340278  .00013447  00000+0  84333-3 0  1226
2 52107  53.2156 196.5558 0001378  83.5085 161.9352 15.08826836    11
STARLINK-3698           
1 52108C 22029W   26122.71993056  .00024593  00000+0  15422-2 0  1220
2 52108  53.2155 196.5701 0001329  79.6798 106.8679 15.08826219    19
STARLINK-3687           
1 52110C 22029Y   26122.70395833  .00023618  00000+0  14811-2 0  1229
2 52110  53.2153 196.6418 0001225  77.8459  41.9019 15.08824777    19
STARLINK-3708           
1 52111C 22029Z   26122.71298611  .00026661  00000+0  16718-2 0  1226
2 52111  53.2148 196.6006 0001255  77.8089 170.9977 15.08827007    14
STARLINK-3734           
1 52112C 22029AA  26122.69770833  .00312860  00000+0  11385-1 0  1228
2 52112  53.2181 193.7556 0001239  61.0060 133.5057 15.27540015    12
STARLINK-3736           
1 52113C 22029AB  26122.72965278  .00019470  00000+0  12218-2 0  1220
2 52113  53.2145 196.5274 0001208  82.0825 297.3091 15.08801871    15
STARLINK-3737           
1 52114C 22029AC  26122.71923611  .00022207  00000+0  13922-2 0  1220
2 52114  53.2148 196.5720 0001156  82.3935 180.2904 15.08837958    10
STARLINK-3685           
1 52115C 22029AD  26122.74631944  .00001212  00000+0  76010-4 0  1221
2 52115  53.2145 196.4524 0001088  82.2824  67.6775 15.08837578    11
STARLINK-3735           
1 52116C 22029AE  26122.73520833  .00013511  00000+0  84723-3 0  1229
2 52116  53.2145 196.5000 0001104  74.2619 315.3129 15.08831390    16
STARLINK-3738           
1 52117C 22029AF  26122.75534722 -.00014871  00000+0 -93266-3 0  1228
2 52117  53.2148 196.4124 0001212  86.7507 152.2921 15.08841238    10
STARLINK-3743           
1 52118C 22029AG  26122.72548611 -.00122070  00000+0 -76568-2 0  1224
2 52118  53.2145 196.5459 0001508  92.3964 284.4478 15.08890419    18
STARLINK-3558           
1 52119C 22029AH  26122.77479167 -.00013515  00000+0 -84755-3 0  1220
2 52119  53.2152 196.3252 0001338  82.5726 302.1257 15.08843646    17
STARLINK-3534           
1 52120C 22029AJ  26122.77826389 -.00017111  00000+0 -10726-2 0  1226
2 52120  53.2145 196.3099 0001288  88.1508 255.3437 15.08861092    18
STARLINK-3678           
1 52121C 22029AK  26122.74562500 -.00016821  00000+0 -10550-2 0  1228
2 52121  53.2143 186.4567 0000572  57.9909 263.1881 15.08842910    19
STARLINK-3726           
1 52122C 22029AL  26122.74145833  .00009147  00000+0  57363-3 0  1220
2 52122  53.2152 196.4759 0001259  80.5913 102.9624 15.08831805    10
STARLINK-3725           
1 52123C 22029AM  26122.72201389 -.00001939  00000+0 -12156-3 0  1222
2 52123  53.2153 186.3860 0001057  72.2846 255.5011 15.08843480    19
STARLINK-3727           
1 52125C 22029AP  26122.71090278  .00009599  00000+0  60195-3 0  1220
2 52125  53.2149 186.6114 0001259  84.6884 107.8188 15.08831315    12
STARLINK-3732           
1 52126C 22029AQ  26122.70395833  .00015779  00000+0  98955-3 0  1227
2 52126  53.2146 186.6434 0001055  77.7812  36.9558 15.08827378    10
STARLINK-3715           
1 52127C 22029AR  26122.71159722  .00007868  00000+0  49335-3 0  1222
2 52127  53.2151 186.6085 0001262  79.0887 137.1817 15.08834462    10
STARLINK-3661           
1 52129C 22029AT  26122.73868056 -.00011301  00000+0 -70871-3 0  1221
2 52129  53.2154 186.4881 0001199  80.5185 322.9317 15.08842342    19
STARLINK-3711           
1 52131C 22029AV  26122.75256944  .00004121  00000+0  20772-3 0  1228
2 52131  53.2134 182.2509 0002961  23.4393 109.6881 15.16642271    10
STARLINK-3718           
1 52132C 22029AW  26122.74215278 -.00044260  00000+0 -27758-2 0  1223
2 52132  53.2151 186.4706 0000794  74.9193 327.4728 15.08856156    16
STARLINK-3707           
1 52133C 22029AX  26122.73798611 -.00001973  00000+0 -12370-3 0  1229
2 52133  53.2151 186.4885 0001291  77.6196  22.0515 15.08838613    11
STARLINK-3721           
1 52134C 22029AY  26122.70465278 -.00015093  00000+0 -94655-3 0  1221
2 52134  53.2152 186.6397 0001371  80.0482 178.4898 15.08842159    18
STARLINK-3729           
1 52135C 22029AZ  26122.73451389  .00293790  00000+0  57701-2 0  1223
2 52135  53.2196 182.8606 0001410  67.3345 150.6174 15.46573179    12
STARLINK-3720           
1 52136C 22029BA  26122.74840278 -.00007631  00000+0 -47836-3 0  1222
2 52136  53.2151 186.4423 0001090  64.1232 112.0561 15.08854584    17
STARLINK-3733           
1 52137C 22029BB  26122.72479167  .00003487  00000+0  21869-3 0  1227
2 52137  53.2143 186.5460 0001085  73.9911  33.9756 15.08836422    15
STARLINK-3723           
1 52138C 22029BC  26122.72270833 -.00001737  00000+0 -10891-3 0  1228
2 52138  53.2148 186.5571 0001296  77.8248 338.8248 15.08837942    15
STARLINK-3730           
1 52139C 22029BD  26122.74284722  .00004003  00000+0  25105-3 0  1224
2 52139  53.2154 196.4669 0001394  84.5803 186.5095 15.08834547    18
STARLINK-3682           
1 52140C 22029BE  26122.74215278 -.00008892  00000+0 -55760-3 0  1228
2 52140  53.2142 186.4682 0001231  83.2241 139.0836 15.08841542    12
STARLINK-3761           
1 52262C 22041B   26122.74145833  .00055228  00000+0  34636-2 0  1227
2 52262  53.2162 226.4255 0001300  79.1333 159.4401 15.08807065    19
STARLINK-3786           
1 52263C 22041C   26122.74909722  .00043999  00000+0  27594-2 0  1220
2 52263  53.2161 226.4387 0001152  77.1369 182.9224 15.08812622    16
STARLINK-3795           
1 52264C 22041D   26122.71645833  .00051471  00000+0  32282-2 0  1222
2 52264  53.2159 226.5848 0001381  78.5704  44.1041 15.08806392    12
STARLINK-3740           
1 52265C 22041E   26122.74145833  .00054502  00000+0  34177-2 0  1224
2 52265  53.2158 226.4743 0001399  79.9571 198.5857 15.08810651    13
STARLINK-3739           
1 52266C 22041F   26122.74840278  .00047692  00000+0  29906-2 0  1226
2 52266  53.2157 226.4426 0001341  81.7608 254.5278 15.08814792    10
STARLINK-3748           
1 52267C 22041G   26122.74354167  .00041180  00000+0  25825-2 0  1226
2 52267  53.2157 226.4717 0001293  80.3542 249.5070 15.08815006    15
STARLINK-3746           
1 52268C 22041H   26122.76159722  .00048012  00000+0  30114-2 0  1227
2 52268  53.2158 226.3057 0001388  83.0131  85.0228 15.08805823    16
STARLINK-3791           
1 52269C 22041J   26122.73937500  .00052295  00000+0  32796-2 0  1229
2 52269  53.2159 226.4853 0001133  77.5885 249.6224 15.08809485    17
STARLINK-3804           
1 52270C 22041K   26122.73381944  .00054769  00000+0  34344-2 0  1225
2 52270  53.2161 226.5391 0001392  89.7506 247.1387 15.08811411    17
STARLINK-3788           
1 52271C 22041L   26122.74354167  .00045237  00000+0  28370-2 0  1226
2 52271  53.2157 226.4652 0001323  80.9202 288.9472 15.08811816    19
STARLINK-3781           
1 52272C 22041M   26122.70256944  .00042698  00000+0  26777-2 0  1224
2 52272  53.2162 226.6883 0001254  80.8656 101.1113 15.08813547    10
STARLINK-3782           
1 52273C 22041N   26122.70881944  .00048894  00000+0  30671-2 0  1221
2 52273  53.2153 217.0029 0001355  82.8971 287.8030 15.08801246    14
STARLINK-3790           
1 52274C 22041P   26122.69145833  .00043349  00000+0  27189-2 0  1220
2 52274  53.2161 226.6956 0001143  73.7270  93.0779 15.08809006    14
STARLINK-3784           
1 52275C 22041Q   26122.74562500  .00050366  00000+0  31590-2 0  1229
2 52275  53.2159 226.4562 0001342  81.8518 339.3288 15.08805643    13
STARLINK-3778           
1 52276C 22041R   26122.76506944  .00045891  00000+0  28778-2 0  1223
2 52276  53.2161 226.3648 0001264  84.1949 142.6607 15.08813969    18
STARLINK-3780           
1 52278C 22041T   26122.70673611  .00047213  00000+0  29612-2 0  1223
2 52278  53.2163 226.6267 0001146  83.1967 206.6324 15.08807521    14
STARLINK-3764           
1 52280C 22041V   26122.72826389  .00050355  00000+0  31580-2 0  1228
2 52280  53.2163 226.5321 0001251  81.7477  25.1033 15.08809447    14
STARLINK-3779           
1 52281C 22041W   26122.72409722  .00048998  00000+0  30733-2 0  1226
2 52281  53.2161 226.5489 0001318  84.3194 274.6661 15.08804586    14
STARLINK-3783           
1 52282C 22041X   26122.76645833  .00026675  00000+0  16727-2 0  1221
2 52282  53.2153 216.3617 0001224  82.6464 266.7650 15.08826178    14
STARLINK-3789           
1 52283C 22041Y   26122.74076389  .00066124  00000+0  41488-2 0  1229
2 52283  53.2166 226.4732 0000994  66.7936  67.9302 15.08785646    18
STARLINK-3561           
1 52284C 22041Z   26122.71784722 -.00012467  00000+0 -78198-3 0  1226
2 52284  53.2156 216.5774 0001149  85.5442  39.7292 15.08835781    19
STARLINK-3802           
1 52286C 22041AB  26122.70256944  .00051219  00000+0  32119-2 0  1225
2 52286  53.2162 216.6488 0001317  83.0864 359.1177 15.08811473    12
STARLINK-3822           
1 52287C 22041AC  26122.71854167  .00052776  00000+0  33101-2 0  1229
2 52287  53.2163 226.5753 0001382  85.0498 348.9426 15.08805551    19
STARLINK-3776           
1 52288C 22041AD  26122.73381944  .00042673  00000+0  26763-2 0  1221
2 52288  53.2162 216.5092 0001259  80.7381 191.3215 15.08812361    13
STARLINK-3751           
1 52289C 22041AE  26122.72756944  .00048921  00000+0  30683-2 0  1225
2 52289  53.2154 216.5342 0000813  77.2091  80.8397 15.08807503    12
STARLINK-3772           
1 52290C 22041AF  26122.72201389  .00041226  00000+0  25854-2 0  1220
2 52290  53.2160 216.5607 0001282  80.0103 182.6748 15.08814390    15
